{
  "type": "FeatureCollection",
  "name": "central-gothenburg-points-100",
  "crs": {
    "type": "name",
    "properties": {
      "name": "EPSG:4326"
    }
  },
  "features": [
    { "type": "Feature", "properties": { "id": 1, "name": "Point 001", "category": "sample", "intensity": 1 }, "geometry": { "type": "Point", "coordinates": [11.9470, 57.6960] } },
    { "type": "Feature", "properties": { "id": 2, "name": "Point 002", "category": "sample", "intensity": 2 }, "geometry": { "type": "Point", "coordinates": [11.9500, 57.6960] } },
    { "type": "Feature", "properties": { "id": 3, "name": "Point 003", "category": "sample", "intensity": 3 }, "geometry": { "type": "Point", "coordinates": [11.9530, 57.6960] } },
    { "type": "Feature", "properties": { "id": 4, "name": "Point 004", "category": "sample", "intensity": 4 }, "geometry": { "type": "Point", "coordinates": [11.9560, 57.6960] } },
    { "type": "Feature", "properties": { "id": 5, "name": "Point 005", "category": "sample", "intensity": 5 }, "geometry": { "type": "Point", "coordinates": [11.9590, 57.6960] } },
    { "type": "Feature", "properties": { "id": 6, "name": "Point 006", "category": "sample", "intensity": 1 }, "geometry": { "type": "Point", "coordinates": [11.9620, 57.6960] } },
    { "type": "Feature", "properties": { "id": 7, "name": "Point 007", "category": "sample", "intensity": 2 }, "geometry": { "type": "Point", "coordinates": [11.9650, 57.6960] } },
    { "type": "Feature", "properties": { "id": 8, "name": "Point 008", "category": "sample", "intensity": 3 }, "geometry": { "type": "Point", "coordinates": [11.9680, 57.6960] } },
    { "type": "Feature", "properties": { "id": 9, "name": "Point 009", "category": "sample", "intensity": 4 }, "geometry": { "type": "Point", "coordinates": [11.9710, 57.6960] } },
    { "type": "Feature", "properties": { "id": 10, "name": "Point 010", "category": "sample", "intensity": 5 }, "geometry": { "type": "Point", "coordinates": [11.9740, 57.6960] } },

    { "type": "Feature", "properties": { "id": 11, "name": "Point 011", "category": "sample", "intensity": 1 }, "geometry": { "type": "Point", "coordinates": [11.9470, 57.6990] } },
    { "type": "Feature", "properties": { "id": 12, "name": "Point 012", "category": "sample", "intensity": 2 }, "geometry": { "type": "Point", "coordinates": [11.9500, 57.6990] } },
    { "type": "Feature", "properties": { "id": 13, "name": "Point 013", "category": "sample", "intensity": 3 }, "geometry": { "type": "Point", "coordinates": [11.9530, 57.6990] } },
    { "type": "Feature", "properties": { "id": 14, "name": "Point 014", "category": "sample", "intensity": 4 }, "geometry": { "type": "Point", "coordinates": [11.9560, 57.6990] } },
    { "type": "Feature", "properties": { "id": 15, "name": "Point 015", "category": "sample", "intensity": 5 }, "geometry": { "type": "Point", "coordinates": [11.9590, 57.6990] } },
    { "type": "Feature", "properties": { "id": 16, "name": "Point 016", "category": "sample", "intensity": 1 }, "geometry": { "type": "Point", "coordinates": [11.9620, 57.6990] } },
    { "type": "Feature", "properties": { "id": 17, "name": "Point 017", "category": "sample", "intensity": 2 }, "geometry": { "type": "Point", "coordinates": [11.9650, 57.6990] } },
    { "type": "Feature", "properties": { "id": 18, "name": "Point 018", "category": "sample", "intensity": 3 }, "geometry": { "type": "Point", "coordinates": [11.9680, 57.6990] } },
    { "type": "Feature", "properties": { "id": 19, "name": "Point 019", "category": "sample", "intensity": 4 }, "geometry": { "type": "Point", "coordinates": [11.9710, 57.6990] } },
    { "type": "Feature", "properties": { "id": 20, "name": "Point 020", "category": "sample", "intensity": 5 }, "geometry": { "type": "Point", "coordinates": [11.9740, 57.6990] } },

    { "type": "Feature", "properties": { "id": 21, "name": "Point 021", "category": "sample", "intensity": 1 }, "geometry": { "type": "Point", "coordinates": [11.9470, 57.7020] } },
    { "type": "Feature", "properties": { "id": 22, "name": "Point 022", "category": "sample", "intensity": 2 }, "geometry": { "type": "Point", "coordinates": [11.9500, 57.7020] } },
    { "type": "Feature", "properties": { "id": 23, "name": "Point 023", "category": "sample", "intensity": 3 }, "geometry": { "type": "Point", "coordinates": [11.9530, 57.7020] } },
    { "type": "Feature", "properties": { "id": 24, "name": "Point 024", "category": "sample", "intensity": 4 }, "geometry": { "type": "Point", "coordinates": [11.9560, 57.7020] } },
    { "type": "Feature", "properties": { "id": 25, "name": "Point 025", "category": "sample", "intensity": 5 }, "geometry": { "type": "Point", "coordinates": [11.9590, 57.7020] } },
    { "type": "Feature", "properties": { "id": 26, "name": "Point 026", "category": "sample", "intensity": 1 }, "geometry": { "type": "Point", "coordinates": [11.9620, 57.7020] } },
    { "type": "Feature", "properties": { "id": 27, "name": "Point 027", "category": "sample", "intensity": 2 }, "geometry": { "type": "Point", "coordinates": [11.9650, 57.7020] } },
    { "type": "Feature", "properties": { "id": 28, "name": "Point 028", "category": "sample", "intensity": 3 }, "geometry": { "type": "Point", "coordinates": [11.9680, 57.7020] } },
    { "type": "Feature", "properties": { "id": 29, "name": "Point 029", "category": "sample", "intensity": 4 }, "geometry": { "type": "Point", "coordinates": [11.9710, 57.7020] } },
    { "type": "Feature", "properties": { "id": 30, "name": "Point 030", "category": "sample", "intensity": 5 }, "geometry": { "type": "Point", "coordinates": [11.9740, 57.7020] } },

    { "type": "Feature", "properties": { "id": 31, "name": "Point 031", "category": "sample", "intensity": 1 }, "geometry": { "type": "Point", "coordinates": [11.9470, 57.7050] } },
    { "type": "Feature", "properties": { "id": 32, "name": "Point 032", "category": "sample", "intensity": 2 }, "geometry": { "type": "Point", "coordinates": [11.9500, 57.7050] } },
    { "type": "Feature", "properties": { "id": 33, "name": "Point 033", "category": "sample", "intensity": 3 }, "geometry": { "type": "Point", "coordinates": [11.9530, 57.7050] } },
    { "type": "Feature", "properties": { "id": 34, "name": "Point 034", "category": "sample", "intensity": 4 }, "geometry": { "type": "Point", "coordinates": [11.9560, 57.7050] } },
    { "type": "Feature", "properties": { "id": 35, "name": "Point 035", "category": "sample", "intensity": 5 }, "geometry": { "type": "Point", "coordinates": [11.9590, 57.7050] } },
    { "type": "Feature", "properties": { "id": 36, "name": "Point 036", "category": "sample", "intensity": 1 }, "geometry": { "type": "Point", "coordinates": [11.9620, 57.7050] } },
    { "type": "Feature", "properties": { "id": 37, "name": "Point 037", "category": "sample", "intensity": 2 }, "geometry": { "type": "Point", "coordinates": [11.9650, 57.7050] } },
    { "type": "Feature", "properties": { "id": 38, "name": "Point 038", "category": "sample", "intensity": 3 }, "geometry": { "type": "Point", "coordinates": [11.9680, 57.7050] } },
    { "type": "Feature", "properties": { "id": 39, "name": "Point 039", "category": "sample", "intensity": 4 }, "geometry": { "type": "Point", "coordinates": [11.9710, 57.7050] } },
    { "type": "Feature", "properties": { "id": 40, "name": "Point 040", "category": "sample", "intensity": 5 }, "geometry": { "type": "Point", "coordinates": [11.9740, 57.7050] } },

    { "type": "Feature", "properties": { "id": 41, "name": "Point 041", "category": "sample", "intensity": 1 }, "geometry": { "type": "Point", "coordinates": [11.9470, 57.7080] } },
    { "type": "Feature", "properties": { "id": 42, "name": "Point 042", "category": "sample", "intensity": 2 }, "geometry": { "type": "Point", "coordinates": [11.9500, 57.7080] } },
    { "type": "Feature", "properties": { "id": 43, "name": "Point 043", "category": "sample", "intensity": 3 }, "geometry": { "type": "Point", "coordinates": [11.9530, 57.7080] } },
    { "type": "Feature", "properties": { "id": 44, "name": "Point 044", "category": "sample", "intensity": 4 }, "geometry": { "type": "Point", "coordinates": [11.9560, 57.7080] } },
    { "type": "Feature", "properties": { "id": 45, "name": "Point 045", "category": "sample", "intensity": 5 }, "geometry": { "type": "Point", "coordinates": [11.9590, 57.7080] } },
    { "type": "Feature", "properties": { "id": 46, "name": "Point 046", "category": "sample", "intensity": 1 }, "geometry": { "type": "Point", "coordinates": [11.9620, 57.7080] } },
    { "type": "Feature", "properties": { "id": 47, "name": "Point 047", "category": "sample", "intensity": 2 }, "geometry": { "type": "Point", "coordinates": [11.9650, 57.7080] } },
    { "type": "Feature", "properties": { "id": 48, "name": "Point 048", "category": "sample", "intensity": 3 }, "geometry": { "type": "Point", "coordinates": [11.9680, 57.7080] } },
    { "type": "Feature", "properties": { "id": 49, "name": "Point 049", "category": "sample", "intensity": 4 }, "geometry": { "type": "Point", "coordinates": [11.9710, 57.7080] } },
    { "type": "Feature", "properties": { "id": 50, "name": "Point 050", "category": "sample", "intensity": 5 }, "geometry": { "type": "Point", "coordinates": [11.9740, 57.7080] } },

    { "type": "Feature", "properties": { "id": 51, "name": "Point 051", "category": "sample", "intensity": 1 }, "geometry": { "type": "Point", "coordinates": [11.9470, 57.7110] } },
    { "type": "Feature", "properties": { "id": 52, "name": "Point 052", "category": "sample", "intensity": 2 }, "geometry": { "type": "Point", "coordinates": [11.9500, 57.7110] } },
    { "type": "Feature", "properties": { "id": 53, "name": "Point 053", "category": "sample", "intensity": 3 }, "geometry": { "type": "Point", "coordinates": [11.9530, 57.7110] } },
    { "type": "Feature", "properties": { "id": 54, "name": "Point 054", "category": "sample", "intensity": 4 }, "geometry": { "type": "Point", "coordinates": [11.9560, 57.7110] } },
    { "type": "Feature", "properties": { "id": 55, "name": "Point 055", "category": "sample", "intensity": 5 }, "geometry": { "type": "Point", "coordinates": [11.9590, 57.7110] } },
    { "type": "Feature", "properties": { "id": 56, "name": "Point 056", "category": "sample", "intensity": 1 }, "geometry": { "type": "Point", "coordinates": [11.9620, 57.7110] } },
    { "type": "Feature", "properties": { "id": 57, "name": "Point 057", "category": "sample", "intensity": 2 }, "geometry": { "type": "Point", "coordinates": [11.9650, 57.7110] } },
    { "type": "Feature", "properties": { "id": 58, "name": "Point 058", "category": "sample", "intensity": 3 }, "geometry": { "type": "Point", "coordinates": [11.9680, 57.7110] } },
    { "type": "Feature", "properties": { "id": 59, "name": "Point 059", "category": "sample", "intensity": 4 }, "geometry": { "type": "Point", "coordinates": [11.9710, 57.7110] } },
    { "type": "Feature", "properties": { "id": 60, "name": "Point 060", "category": "sample", "intensity": 5 }, "geometry": { "type": "Point", "coordinates": [11.9740, 57.7110] } },

    { "type": "Feature", "properties": { "id": 61, "name": "Point 061", "category": "sample", "intensity": 1 }, "geometry": { "type": "Point", "coordinates": [11.9470, 57.7140] } },
    { "type": "Feature", "properties": { "id": 62, "name": "Point 062", "category": "sample", "intensity": 2 }, "geometry": { "type": "Point", "coordinates": [11.9500, 57.7140] } },
    { "type": "Feature", "properties": { "id": 63, "name": "Point 063", "category": "sample", "intensity": 3 }, "geometry": { "type": "Point", "coordinates": [11.9530, 57.7140] } },
    { "type": "Feature", "properties": { "id": 64, "name": "Point 064", "category": "sample", "intensity": 4 }, "geometry": { "type": "Point", "coordinates": [11.9560, 57.7140] } },
    { "type": "Feature", "properties": { "id": 65, "name": "Point 065", "category": "sample", "intensity": 5 }, "geometry": { "type": "Point", "coordinates": [11.9590, 57.7140] } },
    { "type": "Feature", "properties": { "id": 66, "name": "Point 066", "category": "sample", "intensity": 1 }, "geometry": { "type": "Point", "coordinates": [11.9620, 57.7140] } },
    { "type": "Feature", "properties": { "id": 67, "name": "Point 067", "category": "sample", "intensity": 2 }, "geometry": { "type": "Point", "coordinates": [11.9650, 57.7140] } },
    { "type": "Feature", "properties": { "id": 68, "name": "Point 068", "category": "sample", "intensity": 3 }, "geometry": { "type": "Point", "coordinates": [11.9680, 57.7140] } },
    { "type": "Feature", "properties": { "id": 69, "name": "Point 069", "category": "sample", "intensity": 4 }, "geometry": { "type": "Point", "coordinates": [11.9710, 57.7140] } },
    { "type": "Feature", "properties": { "id": 70, "name": "Point 070", "category": "sample", "intensity": 5 }, "geometry": { "type": "Point", "coordinates": [11.9740, 57.7140] } },

    { "type": "Feature", "properties": { "id": 71, "name": "Point 071", "category": "sample", "intensity": 1 }, "geometry": { "type": "Point", "coordinates": [11.9470, 57.7170] } },
    { "type": "Feature", "properties": { "id": 72, "name": "Point 072", "category": "sample", "intensity": 2 }, "geometry": { "type": "Point", "coordinates": [11.9500, 57.7170] } },
    { "type": "Feature", "properties": { "id": 73, "name": "Point 073", "category": "sample", "intensity": 3 }, "geometry": { "type": "Point", "coordinates": [11.9530, 57.7170] } },
    { "type": "Feature", "properties": { "id": 74, "name": "Point 074", "category": "sample", "intensity": 4 }, "geometry": { "type": "Point", "coordinates": [11.9560, 57.7170] } },
    { "type": "Feature", "properties": { "id": 75, "name": "Point 075", "category": "sample", "intensity": 5 }, "geometry": { "type": "Point", "coordinates": [11.9590, 57.7170] } },
    { "type": "Feature", "properties": { "id": 76, "name": "Point 076", "category": "sample", "intensity": 1 }, "geometry": { "type": "Point", "coordinates": [11.9620, 57.7170] } },
    { "type": "Feature", "properties": { "id": 77, "name": "Point 077", "category": "sample", "intensity": 2 }, "geometry": { "type": "Point", "coordinates": [11.9650, 57.7170] } },
    { "type": "Feature", "properties": { "id": 78, "name": "Point 078", "category": "sample", "intensity": 3 }, "geometry": { "type": "Point", "coordinates": [11.9680, 57.7170] } },
    { "type": "Feature", "properties": { "id": 79, "name": "Point 079", "category": "sample", "intensity": 4 }, "geometry": { "type": "Point", "coordinates": [11.9710, 57.7170] } },
    { "type": "Feature", "properties": { "id": 80, "name": "Point 080", "category": "sample", "intensity": 5 }, "geometry": { "type": "Point", "coordinates": [11.9740, 57.7170] } },

    { "type": "Feature", "properties": { "id": 81, "name": "Point 081", "category": "sample", "intensity": 1 }, "geometry": { "type": "Point", "coordinates": [11.9470, 57.7200] } },
    { "type": "Feature", "properties": { "id": 82, "name": "Point 082", "category": "sample", "intensity": 2 }, "geometry": { "type": "Point", "coordinates": [11.9500, 57.7200] } },
    { "type": "Feature", "properties": { "id": 83, "name": "Point 083", "category": "sample", "intensity": 3 }, "geometry": { "type": "Point", "coordinates": [11.9530, 57.7200] } },
    { "type": "Feature", "properties": { "id": 84, "name": "Point 084", "category": "sample", "intensity": 4 }, "geometry": { "type": "Point", "coordinates": [11.9560, 57.7200] } },
    { "type": "Feature", "properties": { "id": 85, "name": "Point 085", "category": "sample", "intensity": 5 }, "geometry": { "type": "Point", "coordinates": [11.9590, 57.7200] } },
    { "type": "Feature", "properties": { "id": 86, "name": "Point 086", "category": "sample", "intensity": 1 }, "geometry": { "type": "Point", "coordinates": [11.9620, 57.7200] } },
    { "type": "Feature", "properties": { "id": 87, "name": "Point 087", "category": "sample", "intensity": 2 }, "geometry": { "type": "Point", "coordinates": [11.9650, 57.7200] } },
    { "type": "Feature", "properties": { "id": 88, "name": "Point 088", "category": "sample", "intensity": 3 }, "geometry": { "type": "Point", "coordinates": [11.9680, 57.7200] } },
    { "type": "Feature", "properties": { "id": 89, "name": "Point 089", "category": "sample", "intensity": 4 }, "geometry": { "type": "Point", "coordinates": [11.9710, 57.7200] } },
    { "type": "Feature", "properties": { "id": 90, "name": "Point 090", "category": "sample", "intensity": 5 }, "geometry": { "type": "Point", "coordinates": [11.9740, 57.7200] } },

    { "type": "Feature", "properties": { "id": 91, "name": "Point 091", "category": "sample", "intensity": 1 }, "geometry": { "type": "Point", "coordinates": [11.9470, 57.7230] } },
    { "type": "Feature", "properties": { "id": 92, "name": "Point 092", "category": "sample", "intensity": 2 }, "geometry": { "type": "Point", "coordinates": [11.9500, 57.7230] } },
    { "type": "Feature", "properties": { "id": 93, "name": "Point 093", "category": "sample", "intensity": 3 }, "geometry": { "type": "Point", "coordinates": [11.9530, 57.7230] } },
    { "type": "Feature", "properties": { "id": 94, "name": "Point 094", "category": "sample", "intensity": 4 }, "geometry": { "type": "Point", "coordinates": [11.9560, 57.7230] } },
    { "type": "Feature", "properties": { "id": 95, "name": "Point 095", "category": "sample", "intensity": 5 }, "geometry": { "type": "Point", "coordinates": [11.9590, 57.7230] } },
    { "type": "Feature", "properties": { "id": 96, "name": "Point 096", "category": "sample", "intensity": 1 }, "geometry": { "type": "Point", "coordinates": [11.9620, 57.7230] } },
    { "type": "Feature", "properties": { "id": 97, "name": "Point 097", "category": "sample", "intensity": 2 }, "geometry": { "type": "Point", "coordinates": [11.9650, 57.7230] } },
    { "type": "Feature", "properties": { "id": 98, "name": "Point 098", "category": "sample", "intensity": 3 }, "geometry": { "type": "Point", "coordinates": [11.9680, 57.7230] } },
    { "type": "Feature", "properties": { "id": 99, "name": "Point 099", "category": "sample", "intensity": 4 }, "geometry": { "type": "Point", "coordinates": [11.9710, 57.7230] } },
    { "type": "Feature", "properties": { "id": 100, "name": "Point 100", "category": "sample", "intensity": 5 }, "geometry": { "type": "Point", "coordinates": [11.9740, 57.7230] } }
  ]
}
